#dP2021 12 29  0  0  0.00000000      96 __u+U ITR00 FIT  IAC
## 2190 259200.00000000   900.00000000 59577 0.0000000000000
+  113   C06C07C08C09C10C11C12C13C14C16C19C20C21C22C23C24C25
+        C26C27C28C29C30C32C33C34C35C36C37C38C39C40C41C42C43
+        C44C45C46E01E02E03E04E05E07E08E09E11E12E13E14E15E18
+        E19E21E24E25E26E27E30E31E33E36G01G02G03G04G05G06G07
+        G08G09G10G11G12G13G14G15G16G17G18G19G20G21G22G23G24
+        G25G26G27G28G29G30G31G32R01R02R03R04R05R07R08R09R11
+        R12R13R14R15R17R18R19R20R21R22R24  0  0  0  0  0  0
++         8  7  9  8  8  8  8 10  7  7  6  6  6  6  6  6  6
++         9  7  7  7  7  7  7  7  7  7  7  7  8  7  7  6  8
++         6  9  7  5  7  7  5  7  7  7  6  7  6  6  7  7  6
++         6  7  6  7  6  6  7  6  6  6  6  6  6  7  6  6  6
++         7  7  6  6  5  6  7  6  7  7  5  7  5  6  6  6  6
++         7  6  6  7  6  6  6  7  8  7  6  7  6  6  6  8  6
++         6  7  6  6  7  8  6  6  7  8  6  0  0  0  0  0  0
%c M  cc GPS ccc cccc cccc cccc cccc ccccc ccccc ccccc ccccc
%c cc cc ccc ccc cccc cccc cccc cccc ccccc ccccc ccccc ccccc
%f  0.0000000  0.000000000  0.00000000000  0.000000000000000
%f  0.0000000  0.000000000  0.00000000000  0.000000000000000
%i    0    0    0    0      0      0      0      0         0
%i    0    0    0    0      0      0      0      0         0
/* INFORMATION & ANALYSIS CENTER (IAC)      ULTRA-RAPID DATA
/* S/V CLOCKS ARE ALIGNED TO GNSS TIME                      
/* G:C1WC2W R:C1PC2P E:C1XC5X C:C2IC6I J:C1CC2S             
/* PCV:IGS14_2186 OL/AL:FES2004  NONE     YN ORB:CoN CLK:CoN
*  2021 12 29 14 30  0.00000000
PC06  -1124.617418  28856.559438 -30657.673326    714.130645
PC07 -15310.209360  29824.317925  25523.124533     64.085123
PC08  -9161.656930  41139.994616   2892.795310     17.123331
PC09   5412.198966  31908.246285 -26463.084467   -389.425022
PC10  -7876.360489  29665.483356  28990.139033    138.556700
PC11 -11903.010697   9814.106688  23323.634104   -303.442610
PC12 -22218.274593  -6605.792794  15570.470980   -430.598534
PC13  -5543.870444  41913.994040  -1655.746463   -163.105328
PC14 -21951.903091  14251.569915  -9595.966786    483.029941
PC16  -5155.484787  25954.421503 -32650.190675     39.605050
PC19  13775.439944 -17077.377103  17270.079383    916.569472
PC20  25918.914933 -10143.721559   2182.550334   -798.986381
PC21 -23192.574236  -3368.684834  15150.780397   -954.583978
PC22  -6774.157348 -14399.209467  22919.662107   -962.858248
PC23   3503.816358  24898.785106  12116.835357   -964.651586
PC24 -16697.205235  10993.580389 -19497.608756   -948.291435
PC25  -8289.410214  26278.616833  -4509.924652   -802.767664
PC26 -14672.898196  -8190.733612 -22286.280371    801.028462
PC27  22906.848915  13959.422990  -7678.382343    652.895554
PC28  13896.235989  22116.460083   9835.977644     14.588687
PC29   2805.041160 -17369.608572 -21663.433437    494.187351
PC30  18882.627355  -2448.709372 -20394.854304    489.920532
PC32  23196.657047   3221.342222 -15166.526114   -956.860450
PC33 -13757.332834  17150.777002 -17179.242115   -957.303494
PC34 -18374.663681   3244.827244  20752.332333   -503.819979
PC35 -14182.265042 -21714.501514 -10347.844571     68.462386
PC36   9181.761410 -25876.674709   4968.672887   -847.838205
PC37  14051.492010   9764.536551  22059.928364   -925.591358
PC38 -13829.282131  38285.008702  11359.646584    200.161781
PC39  -8493.119352  23441.745187 -34003.171708     34.485532
PC40 -24033.930087  24127.215241  24777.833545    230.863017
PC41   6391.155225  14557.657771 -22888.074820   -918.836303
PC42 -26176.585841   9576.029606  -1202.401098   -930.730060
PC43  -3583.445663  17061.783030  21781.271926   -951.375279
PC44 -23395.468958 -13314.156059   7418.137546    514.152431
PC45  -3626.084720 -24746.354285 -12348.594587    639.748826
PC46  16387.480744 -12344.931657  18893.987140    -86.309064
PE01  -4877.286519  23528.801356  17296.868962   -548.327587
PE02   4712.882302 -23457.500325 -17411.083366    270.075066
PE03  -5251.339148 -17640.638771  23171.112656   -511.469778
PE04  23873.500712  12935.523858 -11783.210866   -931.255929
PE05  16802.927143 -12073.325677  21161.735325   -222.788766
PE07 -28788.068513   -448.570365  -6862.570586   -622.751241
PE08 -24212.177114 -12567.801535  11473.445377   5880.882280
PE09  28744.343322    234.763932   7081.660752   5413.364975
PE11  17158.623484   1381.138841 -24079.316229   4791.731765
PE12  16199.230967  21512.022502 -12266.444324   4836.672940
PE13 -17247.589163  -2076.666042  23977.167116    425.136112
PE14  26965.006686  -4270.863053 -17195.984155  -1691.580856
PE15 -16201.514388 -21564.408482  12206.891949    772.437479
PE18 -21337.978190    216.762087  10451.522494  -1861.357741
PE19   2411.231944  17387.590425 -23834.234866    464.264513
PE21 -18795.870003  22855.878784    971.510394   -708.121036
PE24  22525.876112  -7732.627519  17545.292604  -1306.225113
PE25  18918.517121 -22743.549540   -725.917207   -558.493577
PE26  -7687.662129  19425.798811  20981.993757   -626.023369
PE27 -22699.588591   8978.440832 -16752.863231   -197.660299
PE30 -12356.038182 -11176.919639 -24473.792421   -148.930598
PE31  13208.020037  10099.024601  24496.585581   -490.025853
PE33   5589.886748  28274.843762   6744.270731   -460.937941
PE36   8147.023461 -18532.343415 -21586.534270   -310.621472
PG01 -13887.613099   4535.192761  21887.937831    471.193629
PG02  14345.669986  17400.316857 -13283.531545   -647.168197
PG03 -22217.664348  11469.435993   8704.029411    -58.305589
PG04 -22706.254901   1619.004372 -13747.516764   -197.227293
PG05  18025.445740   1917.357113 -19625.136669    -66.065574
PG06   5408.279663  25957.022552   -658.466383    155.899531
PG07  -7130.032680  20166.030950 -15048.725990    296.308769
PG08 -25875.471225  -5833.901724   3406.318037    -49.996339
PG09 -13606.363572  10693.906906 -20230.234421   -359.379321
PG10   6506.292011 -20165.030152  15960.270855   -280.373571
PG11  12102.298236  19489.606895 -13402.744238      5.726698
PG12  22811.140954  -8324.020106  10339.365766   -147.940250
PG13  22849.364592  13479.630968  -2647.892609    236.965267
PG14  -7723.396227  20172.895509  15410.845268    -62.808961
PG15  26305.167603   3009.161072   3308.288445    -95.537416
PG16 -15584.730303  -6360.963365 -20910.582791   -447.806387
PG17    857.616406  16023.412740  21599.338764    554.174629
PG18   6791.232129 -20809.592089 -14973.253238    270.825667
PG19  10028.595075  17431.239471  17179.259146     98.576028
PG20  10784.615154  11421.177185 -21438.528512    517.415403
PG21 -16652.797078  -5430.895414  20807.459300    154.914235
PG22 -20591.059763   4847.949296  16101.585090   -429.989991
PG23  15892.137364 -20323.652587   6091.924797     16.685992
PG24  16015.419349   -142.267475  20941.983596    276.484651
PG25  19874.458825 -17381.861851     99.665696    263.028040
PG26  -4724.779428 -16243.854091 -20482.092011    169.527477
PG27 -22563.482546 -12710.158028  -6940.676920     35.001399
PG28   -557.321629  17639.445271  20447.666989    433.183555
PG29  17300.778736  -6488.899699 -19144.148207   -460.403982
PG30   -707.687342  25493.878758  -6886.928000   -502.937523
PG31  -6722.042558 -25218.151941  -3391.767783   -157.390632
PG32  -6133.025484 -16775.749360  19835.426953    -42.279348
PR01 -22084.642686   8186.250366  -9788.461299      7.334950
PR02  -4580.763156  11217.671877 -22418.913135    504.834269
PR03  14271.077630   7543.595501 -19690.914908     48.990035
PR04  24775.916140   -343.951002  -6005.598695    121.116160
PR05  21591.142813  -7907.261029  11018.521327     85.028844
PR07 -14979.366972  -7305.300884  19363.260452    -38.813315
PR08 -24813.313148    366.009388   6018.487779    -62.791312
PR09   6114.291967 -23999.901840  -6238.594148     31.290265
PR11 -12017.538540   1570.969324 -22435.524422     48.131454
PR12 -13378.750559  18538.047516 -11319.481272    290.524475
PR13  -6787.060739  24024.049829   5239.170457    -16.316568
PR14   4298.172506  15208.455577  20027.440227     72.638476
PR15  12368.308543  -2116.126131  22223.621865     99.271938
PR17  15378.415962  20377.196403    209.052634    487.863328
PR18  16929.055556  10899.123876 -15608.081411    102.102684
PR19  10375.878988  -3092.295295 -23089.781219   -172.461313
PR20  -4025.178568 -18675.778432 -16909.749617    -62.096154
PR21 -15767.824623 -19994.191900   1255.285231   -265.961863
PR22 -16713.408273 -10337.776700  16312.419919   -154.619259
PR24   4623.351171  19087.577877  16309.855334     73.328297
EOF
